[{"OBJECT_NAME":"STARLINK-36352","OBJECT_ID":"2026-016G","EPOCH":"2026-02-17T02:42:52.194240","MEAN_MOTION":15.80833973,"ECCENTRICITY":0.0001816,"INCLINATION":97.2834,"RA_OF_ASC_NODE":107.5734,"ARG_OF_PERICENTER":100.5984,"MEAN_ANOMALY":259.5489,"EPHEMERIS_TYPE":0,"CLASSIFICATION_TYPE":"U","NORAD_CAT_ID":67567,"ELEMENT_SET_NO":999,"REV_AT_EPOCH":356,"BSTAR":0.00020445,"MEAN_MOTION_DOT":0.0003923,"MEAN_MOTION_DDOT":0},{"OBJECT_NAME":"STARLINK-36435","OBJECT_ID":"2026-016H","EPOCH":"2026-02-17T02:39:37.875456","MEAN_MOTION":15.80868759,"ECCENTRICITY":1.14e-5,"INCLINATION":97.2835,"RA_OF_ASC_NODE":107.5761,"ARG_OF_PERICENTER":108.8349,"MEAN_ANOMALY":251.2931,"EPHEMERIS_TYPE":0,"CLASSIFICATION_TYPE":"U","NORAD_CAT_ID":67568,"ELEMENT_SET_NO":999,"REV_AT_EPOCH":356,"BSTAR":0.00098896,"MEAN_MOTION_DOT":0.00194034,"MEAN_MOTION_DDOT":0},{"OBJECT_NAME":"STARLINK-36575","OBJECT_ID":"2026-016J","EPOCH":"2026-02-17T02:37:53.144832","MEAN_MOTION":15.80853475,"ECCENTRICITY":0.0001708,"INCLINATION":97.2825,"RA_OF_ASC_NODE":107.5813,"ARG_OF_PERICENTER":104.9007,"MEAN_ANOMALY":255.2451,"EPHEMERIS_TYPE":0,"CLASSIFICATION_TYPE":"U","NORAD_CAT_ID":67569,"ELEMENT_SET_NO":999,"REV_AT_EPOCH":356,"BSTAR":0.00044438,"MEAN_MOTION_DOT":0.00085971,"MEAN_MOTION_DDOT":0},{"OBJECT_NAME":"STARLINK-36562","OBJECT_ID":"2026-016K","EPOCH":"2026-02-17T02:36:34.677216","MEAN_MOTION":15.80898135,"ECCENTRICITY":0.0001849,"INCLINATION":97.2824,"RA_OF_ASC_NODE":107.5818,"ARG_OF_PERICENTER":88.7242,"MEAN_ANOMALY":271.4238,"EPHEMERIS_TYPE":0,"CLASSIFICATION_TYPE":"U","NORAD_CAT_ID":67570,"ELEMENT_SET_NO":999,"REV_AT_EPOCH":356,"BSTAR":0.0013184,"MEAN_MOTION_DOT":0.00261088,"MEAN_MOTION_DDOT":0},{"OBJECT_NAME":"STARLINK-36578","OBJECT_ID":"2026-016L","EPOCH":"2026-02-17T03:14:48.221376","MEAN_MOTION":15.75175828,"ECCENTRICITY":0.0001229,"INCLINATION":97.2836,"RA_OF_ASC_NODE":107.5447,"ARG_OF_PERICENTER":103.278,"MEAN_ANOMALY":256.8622,"EPHEMERIS_TYPE":0,"CLASSIFICATION_TYPE":"U","NORAD_CAT_ID":67571,"ELEMENT_SET_NO":999,"REV_AT_EPOCH":356,"BSTAR":0.00046893,"MEAN_MOTION_DOT":0.00070349,"MEAN_MOTION_DDOT":0},{"OBJECT_NAME":"STARLINK-36350","OBJECT_ID":"2026-016M","EPOCH":"2026-02-17T03:03:37.226880","MEAN_MOTION":15.75186531,"ECCENTRICITY":0.0001349,"INCLINATION":97.2837,"RA_OF_ASC_NODE":107.5537,"ARG_OF_PERICENTER":77.1339,"MEAN_ANOMALY":283.0076,"EPHEMERIS_TYPE":0,"CLASSIFICATION_TYPE":"U","NORAD_CAT_ID":67572,"ELEMENT_SET_NO":999,"REV_AT_EPOCH":356,"BSTAR":0.00055481,"MEAN_MOTION_DOT":0.00083423,"MEAN_MOTION_DDOT":0},{"OBJECT_NAME":"STARLINK-36588","OBJECT_ID":"2026-016N","EPOCH":"2026-02-17T03:06:40.378464","MEAN_MOTION":15.75212703,"ECCENTRICITY":0.0001978,"INCLINATION":97.2834,"RA_OF_ASC_NODE":107.5519,"ARG_OF_PERICENTER":56.7926,"MEAN_ANOMALY":303.3529,"EPHEMERIS_TYPE":0,"CLASSIFICATION_TYPE":"U","NORAD_CAT_ID":67573,"ELEMENT_SET_NO":999,"REV_AT_EPOCH":356,"BSTAR":0.00089773,"MEAN_MOTION_DOT":0.00136064,"MEAN_MOTION_DDOT":0},{"OBJECT_NAME":"STARLINK-36594","OBJECT_ID":"2026-016P","EPOCH":"2026-02-17T04:00:56.509344","MEAN_MOTION":15.8088873,"ECCENTRICITY":0.0001407,"INCLINATION":97.2832,"RA_OF_ASC_NODE":107.654,"ARG_OF_PERICENTER":71.3383,"MEAN_ANOMALY":288.8037,"EPHEMERIS_TYPE":0,"CLASSIFICATION_TYPE":"U","NORAD_CAT_ID":67574,"ELEMENT_SET_NO":999,"REV_AT_EPOCH":357,"BSTAR":0.00098388,"MEAN_MOTION_DOT":0.0019319,"MEAN_MOTION_DDOT":0},{"OBJECT_NAME":"STARLINK-36400","OBJECT_ID":"2026-016Q","EPOCH":"2026-02-17T04:00:00.999936","MEAN_MOTION":15.75160056,"ECCENTRICITY":0.0001406,"INCLINATION":97.284,"RA_OF_ASC_NODE":107.6354,"ARG_OF_PERICENTER":80.7092,"MEAN_ANOMALY":229.3661,"EPHEMERIS_TYPE":0,"CLASSIFICATION_TYPE":"U","NORAD_CAT_ID":67575,"ELEMENT_SET_NO":999,"REV_AT_EPOCH":469,"BSTAR":0.00060868,"MEAN_MOTION_DOT":0.00091519,"MEAN_MOTION_DDOT":0},{"OBJECT_NAME":"STARLINK-36591","OBJECT_ID":"2026-016R","EPOCH":"2026-02-17T03:58:04.715904","MEAN_MOTION":15.80497271,"ECCENTRICITY":0.0002026,"INCLINATION":97.284,"RA_OF_ASC_NODE":107.6568,"ARG_OF_PERICENTER":82.0159,"MEAN_ANOMALY":278.1339,"EPHEMERIS_TYPE":0,"CLASSIFICATION_TYPE":"U","NORAD_CAT_ID":67576,"ELEMENT_SET_NO":999,"REV_AT_EPOCH":357,"BSTAR":-0.0017735,"MEAN_MOTION_DOT":-0.00322914,"MEAN_MOTION_DDOT":0},{"OBJECT_NAME":"STARLINK-36590","OBJECT_ID":"2026-016S","EPOCH":"2026-02-17T02:46:51.149856","MEAN_MOTION":15.75218409,"ECCENTRICITY":0.0001725,"INCLINATION":97.2831,"RA_OF_ASC_NODE":107.5696,"ARG_OF_PERICENTER":84.9197,"MEAN_ANOMALY":275.2265,"EPHEMERIS_TYPE":0,"CLASSIFICATION_TYPE":"U","NORAD_CAT_ID":67577,"ELEMENT_SET_NO":999,"REV_AT_EPOCH":356,"BSTAR":0.001017,"MEAN_MOTION_DOT":0.00154535,"MEAN_MOTION_DDOT":0},{"OBJECT_NAME":"STARLINK-36613","OBJECT_ID":"2026-016T","EPOCH":"2026-02-17T02:23:50.984160","MEAN_MOTION":15.80910482,"ECCENTRICITY":0.0001625,"INCLINATION":97.284,"RA_OF_ASC_NODE":107.5919,"ARG_OF_PERICENTER":96.3215,"MEAN_ANOMALY":263.8238,"EPHEMERIS_TYPE":0,"CLASSIFICATION_TYPE":"U","NORAD_CAT_ID":67578,"ELEMENT_SET_NO":999,"REV_AT_EPOCH":356,"BSTAR":0.00061013,"MEAN_MOTION_DOT":0.00118846,"MEAN_MOTION_DDOT":0},{"OBJECT_NAME":"STARLINK-36571","OBJECT_ID":"2026-016U","EPOCH":"2026-02-16T14:40:36.409728","MEAN_MOTION":15.75237849,"ECCENTRICITY":0.00022084,"INCLINATION":97.2834,"RA_OF_ASC_NODE":107.032,"ARG_OF_PERICENTER":89.4222,"MEAN_ANOMALY":270.7297,"EPHEMERIS_TYPE":0,"CLASSIFICATION_TYPE":"U","NORAD_CAT_ID":67579,"ELEMENT_SET_NO":999,"REV_AT_EPOCH":348,"BSTAR":0.0011584505,"MEAN_MOTION_DOT":0.00176654,"MEAN_MOTION_DDOT":0},{"OBJECT_NAME":"STARLINK-36612","OBJECT_ID":"2026-016V","EPOCH":"2026-02-16T14:10:53.015232","MEAN_MOTION":15.80879516,"ECCENTRICITY":0.00010829,"INCLINATION":97.2849,"RA_OF_ASC_NODE":107.0602,"ARG_OF_PERICENTER":83.5629,"MEAN_ANOMALY":276.5763,"EPHEMERIS_TYPE":0,"CLASSIFICATION_TYPE":"U","NORAD_CAT_ID":67580,"ELEMENT_SET_NO":999,"REV_AT_EPOCH":348,"BSTAR":0.00086186942,"MEAN_MOTION_DOT":0.00168664,"MEAN_MOTION_DDOT":0},{"OBJECT_NAME":"STARLINK-36632","OBJECT_ID":"2026-016W","EPOCH":"2026-02-16T14:00:01.999872","MEAN_MOTION":15.7517962,"ECCENTRICITY":0.00015968,"INCLINATION":97.2846,"RA_OF_ASC_NODE":107.0322,"ARG_OF_PERICENTER":109.2133,"MEAN_ANOMALY":159.2711,"EPHEMERIS_TYPE":0,"CLASSIFICATION_TYPE":"U","NORAD_CAT_ID":67581,"ELEMENT_SET_NO":999,"REV_AT_EPOCH":465,"BSTAR":0.00039928115,"MEAN_MOTION_DOT":0.00059818,"MEAN_MOTION_DDOT":0},{"OBJECT_NAME":"STARLINK-36609","OBJECT_ID":"2026-016X","EPOCH":"2026-02-16T14:46:12.069408","MEAN_MOTION":15.75209806,"ECCENTRICITY":0.00022173,"INCLINATION":97.2834,"RA_OF_ASC_NODE":107.026,"ARG_OF_PERICENTER":67.099,"MEAN_ANOMALY":293.051,"EPHEMERIS_TYPE":0,"CLASSIFICATION_TYPE":"U","NORAD_CAT_ID":67582,"ELEMENT_SET_NO":999,"REV_AT_EPOCH":348,"BSTAR":0.0010296661,"MEAN_MOTION_DOT":0.00156438,"MEAN_MOTION_DDOT":0}]
