STARLINK-36352          
1 67567U 26016G   26048.11310410  .00039230  00000+0  20445-3 0  9991
2 67567  97.2834 107.5734 0001816 100.5984 259.5489 15.80833973  3569
STARLINK-36435          
1 67568U 26016H   26048.11085504  .00194034  00000+0  98896-3 0  9994
2 67568  97.2835 107.5761 0000114 108.8349 251.2931 15.80868759  3568
STARLINK-36575          
1 67569U 26016J   26048.10964288  .00085971  00000+0  44438-3 0  9991
2 67569  97.2825 107.5813 0001708 104.9007 255.2451 15.80853475  3564
STARLINK-36562          
1 67570U 26016K   26048.10873469  .00261088  00000+0  13184-2 0  9991
2 67570  97.2824 107.5818 0001849  88.7242 271.4238 15.80898135  3561
STARLINK-36578          
1 67571U 26016L   26048.13528034  .00070349  00000+0  46893-3 0  9992
2 67571  97.2836 107.5447 0001229 103.2780 256.8622 15.75175828  3560
STARLINK-36350          
1 67572U 26016M   26048.12751420  .00083423  00000+0  55481-3 0  9999
2 67572  97.2837 107.5537 0001349  77.1339 283.0076 15.75186531  3562
STARLINK-36588          
1 67573U 26016N   26048.12963401  .00136064  00000+0  89773-3 0  9995
2 67573  97.2834 107.5519 0001978  56.7926 303.3529 15.75212703  3563
STARLINK-36594          
1 67574U 26016P   26048.16732071  .00193190  00000+0  98388-3 0  9992
2 67574  97.2832 107.6540 0001407  71.3383 288.8037 15.80888730  3571
STARLINK-36400          
1 67575U 26016Q   26048.16667824  .00091519  00000+0  60868-3 0  9990
2 67575  97.2840 107.6354 0001406  80.7092 229.3661 15.75160056  4699
STARLINK-36591          
1 67576U 26016R   26048.16533236 -.00322914  00000+0 -17735-2 0  9992
2 67576  97.2840 107.6568 0002026  82.0159 278.1339 15.80497271  3573
STARLINK-36590          
1 67577U 26016S   26048.11586979  .00154535  00000+0  10170-2 0  9996
2 67577  97.2831 107.5696 0001725  84.9197 275.2265 15.75218409  3566
STARLINK-36613          
1 67578U 26016T   26048.09989565  .00118846  00000+0  61013-3 0  9990
2 67578  97.2840 107.5919 0001625  96.3215 263.8238 15.80910482  3561
STARLINK-36571          
1 67579U 26016U   26047.61153252  .00176654  00000+0  11585-2 0  9993
2 67579  97.2834 107.0320 0002208  89.4222 270.7297 15.75237849  3481
STARLINK-36612          
1 67580U 26016V   26047.59089138  .00168664  00000+0  86187-3 0  9996
2 67580  97.2849 107.0602 0001082  83.5629 276.5763 15.80879516  3488
STARLINK-36632          
1 67581U 26016W   26047.58335648  .00059818  00000+0  39928-3 0  9997
2 67581  97.2846 107.0322 0001596 109.2133 159.2711 15.75179620  4654
STARLINK-36609          
1 67582U 26016X   26047.61541747  .00156438  00000+0  10297-2 0  9994
2 67582  97.2834 107.0260 0002217  67.0990 293.0510 15.75209806  3480
